{"type": "FeatureCollection", "features": [ {"type": "Feature", "properties": {"norad_id": 31196, "name": "FENGYUN 1C DEB", "group": "fengyun-1c-debris", "lat": 44.15718077127568, "lon": -17.900492196042016, "alt_km": 843.006303336665, "timestamp": "2025-12-02T23:34:15.797282+00:00", "meta": {"OBJECT_NAME": "FENGYUN 1C DEB", "OBJECT_ID": "1999-025BKA", "EPOCH": "2025-12-01T20:24:17.654976", "MEAN_MOTION": 14.25414445, "ECCENTRICITY": 0.00575237, "INCLINATION": 98.5273, "RA_OF_ASC_NODE": 349.3759, "ARG_OF_PERICENTER": 244.3267, "MEAN_ANOMALY": 115.1966, "EPHEMERIS_TYPE": 0, "CLASSIFICATION_TYPE": "U", "NORAD_CAT_ID": 31196, "ELEMENT_SET_NO": 999, "REV_AT_EPOCH": 63340, "BSTAR": 0.00061756422, "MEAN_MOTION_DOT": 1.439e-05, "MEAN_MOTION_DDOT": 0}, "tle": {"line1": "1 31196U 99025BKA 25335.85020434  .00001439  00000+0  61756-3 0  9993", "line2": "2 31196  98.5273 349.3759 0057523 244.3267 115.1966 14.25414445633405"}}, "geometry": {"type": "Point", "coordinates": [-17.900492196042016, 44.15718077127568]}}, {"type": "Feature", "properties": {"norad_id": 31198, "name": "FENGYUN 1C DEB", "group": "fengyun-1c-debris", "lat": 15.805057504207968, "lon": 79.32109421225326, "alt_km": 830.0601278425656, "timestamp": "2025-12-02T23:34:15.797292+00:00", "meta": {"OBJECT_NAME": "FENGYUN 1C DEB", "OBJECT_ID": "1999-025BKC", "EPOCH": "2025-12-01T12:34:56.883936", "MEAN_MOTION": 13.75517789, "ECCENTRICITY": 0.02043988, "INCLINATION": 98.6128, "RA_OF_ASC_NODE": 80.4615, "ARG_OF_PERICENTER": 21.657, "MEAN_ANOMALY": 339.3074, "EPHEMERIS_TYPE": 0, "CLASSIFICATION_TYPE": "U", "NORAD_CAT_ID": 31198, "ELEMENT_SET_NO": 999, "REV_AT_EPOCH": 62599, "BSTAR": 9.550966e-05, "MEAN_MOTION_DOT": 6.9e-07, "MEAN_MOTION_DDOT": 0}, "tle": {"line1": "1 31198U 99025BKC 25335.52426949  .00000069  00000+0  95510-4 0  9994", "line2": "2 31198  98.6128  80.4615 0204398  21.6570 339.3074 13.75517789625992"}}, "geometry": {"type": "Point", "coordinates": [79.32109421225326, 15.805057504207968]}}, {"type": "Feature", "properties": {"norad_id": 31199, "name": "FENGYUN 1C DEB", "group": "fengyun-1c-debris", "lat": 33.207923031846676, "lon": -45.69645338079628, "alt_km": 869.7985016433604, "timestamp": "2025-12-02T23:34:15.797302+00:00", "meta": {"OBJECT_NAME": "FENGYUN 1C DEB", "OBJECT_ID": "1999-025BKD", "EPOCH": "2025-12-01T22:00:32.715648", "MEAN_MOTION": 14.0997455, "ECCENTRICITY": 0.00638947, "INCLINATION": 98.7153, "RA_OF_ASC_NODE": 319.0345, "ARG_OF_PERICENTER": 290.7874, "MEAN_ANOMALY": 99.0046, "EPHEMERIS_TYPE": 0, "CLASSIFICATION_TYPE": "U", "NORAD_CAT_ID": 31199, "ELEMENT_SET_NO": 999, "REV_AT_EPOCH": 96007, "BSTAR": 0.00023048565, "MEAN_MOTION_DOT": 3.71e-06, "MEAN_MOTION_DDOT": 0}, "tle": {"line1": "1 31199U 99025BKD 25335.91704532  .00000371  00000+0  23049-3 0  9998", "line2": "2 31199  98.7153 319.0345 0063894 290.7874  99.0046 14.09974550960074"}}, "geometry": {"type": "Point", "coordinates": [-45.69645338079628, 33.207923031846676]}}, {"type": "Feature", "properties": {"norad_id": 31201, "name": "FENGYUN 1C DEB", "group": "fengyun-1c-debris", "lat": 79.2047788837499, "lon": 141.18340423019825, "alt_km": 721.8494562767255, "timestamp": "2025-12-02T23:34:15.797312+00:00", "meta": {"OBJECT_NAME": "FENGYUN 1C DEB", "OBJECT_ID": "1999-025BKF", "EPOCH": "2025-12-02T02:08:41.257824", "MEAN_MOTION": 14.35073162, "ECCENTRICITY": 0.01431761, "INCLINATION": 99.0033, "RA_OF_ASC_NODE": 196.506, "ARG_OF_PERICENTER": 22.3283, "MEAN_ANOMALY": 130.6061, "EPHEMERIS_TYPE": 0, "CLASSIFICATION_TYPE": "U", "NORAD_CAT_ID": 31201, "ELEMENT_SET_NO": 999, "REV_AT_EPOCH": 97098, "BSTAR": 0.00093742981, "MEAN_MOTION_DOT": 2.952e-05, "MEAN_MOTION_DDOT": 0}, "tle": {"line1": "1 31201U 99025BKF 25336.08936641  .00002952  00000+0  93743-3 0  9994", "line2": "2 31201  99.0033 196.5060 0143176  22.3283 130.6061 14.35073162970984"}}, "geometry": {"type": "Point", "coordinates": [141.18340423019825, 79.2047788837499]}}, {"type": "Feature", "properties": {"norad_id": 31202, "name": "FENGYUN 1C DEB", "group": "fengyun-1c-debris", "lat": -36.932447087720384, "lon": 28.919800728984214, "alt_km": 641.6418013358689, "timestamp": "2025-12-02T23:34:15.797323+00:00", "meta": {"OBJECT_NAME": "FENGYUN 1C DEB", "OBJECT_ID": "1999-025BKG", "EPOCH": "2025-12-02T02:49:45.373728", "MEAN_MOTION": 14.83770333, "ECCENTRICITY": 0.00676697, "INCLINATION": 96.5753, "RA_OF_ASC_NODE": 23.2332, "ARG_OF_PERICENTER": 213.309, "MEAN_ANOMALY": 175.3321, "EPHEMERIS_TYPE": 0, "CLASSIFICATION_TYPE": "U", "NORAD_CAT_ID": 31202, "ELEMENT_SET_NO": 999, "REV_AT_EPOCH": 98997, "BSTAR": 0.0012827994, "MEAN_MOTION_DOT": 0.00011028, "MEAN_MOTION_DDOT": 0}, "tle": {"line1": "1 31202U 99025BKG 25336.11788627  .00011028  00000+0  12828-2 0  9996", "line2": "2 31202  96.5753  23.2332 0067669 213.3090 175.3321 14.83770333989975"}}, "geometry": {"type": "Point", "coordinates": [28.919800728984214, -36.932447087720384]}}, {"type": "Feature", "properties": {"norad_id": 31205, "name": "FENGYUN 1C DEB", "group": "fengyun-1c-debris", "lat": -21.41806562094573, "lon": -114.0019436718896, "alt_km": 710.6929706792216, "timestamp": "2025-12-02T23:34:15.797333+00:00", "meta": {"OBJECT_NAME": "FENGYUN 1C DEB", "OBJECT_ID": "1999-025BKK", "EPOCH": "2025-12-02T12:29:56.445216", "MEAN_MOTION": 14.23942348, "ECCENTRICITY": 0.0161505, "INCLINATION": 99.2296, "RA_OF_ASC_NODE": 69.1707, "ARG_OF_PERICENTER": 226.6979, "MEAN_ANOMALY": 132.0635, "EPHEMERIS_TYPE": 0, "CLASSIFICATION_TYPE": "U", "NORAD_CAT_ID": 31205, "ELEMENT_SET_NO": 999, "REV_AT_EPOCH": 97065, "BSTAR": 0.0002235, "MEAN_MOTION_DOT": 5.35e-06, "MEAN_MOTION_DDOT": 0}, "tle": {"line1": "1 31205U 99025BKK 25336.52079219  .00000535  00000+0  22350-3 0  9997", "line2": "2 31205  99.2296  69.1707 0161505 226.6979 132.0635 14.23942348970656"}}, "geometry": {"type": "Point", "coordinates": [-114.0019436718896, -21.41806562094573]}}, {"type": "Feature", "properties": {"norad_id": 31206, "name": "FENGYUN 1C DEB", "group": "fengyun-1c-debris", "lat": 4.335856960500477, "lon": -116.09535598808131, "alt_km": 709.0731530360426, "timestamp": "2025-12-02T23:34:15.797343+00:00", "meta": {"OBJECT_NAME": "FENGYUN 1C DEB", "OBJECT_ID": "1999-025BKL", "EPOCH": "2025-12-02T00:12:40.586112", "MEAN_MOTION": 14.40414762, "ECCENTRICITY": 0.00783642, "INCLINATION": 98.8427, "RA_OF_ASC_NODE": 243.5756, "ARG_OF_PERICENTER": 33.2859, "MEAN_ANOMALY": 327.3221, "EPHEMERIS_TYPE": 0, "CLASSIFICATION_TYPE": "U", "NORAD_CAT_ID": 31206, "ELEMENT_SET_NO": 999, "REV_AT_EPOCH": 97691, "BSTAR": 0.00086299245, "MEAN_MOTION_DOT": 2.795e-05, "MEAN_MOTION_DDOT": 0}, "tle": {"line1": "1 31206U 99025BKL 25336.00880308  .00002795  00000+0  86299-3 0  9992", "line2": "2 31206  98.8427 243.5756 0078364  33.2859 327.3221 14.40414762976917"}}, "geometry": {"type": "Point", "coordinates": [-116.09535598808131, 4.335856960500477]}}, {"type": "Feature", "properties": {"norad_id": 31208, "name": "FENGYUN 1C DEB", "group": "fengyun-1c-debris", "lat": -41.69884826377386, "lon": -68.79555627492529, "alt_km": 692.0765348664336, "timestamp": "2025-12-02T23:34:15.797353+00:00", "meta": {"OBJECT_NAME": "FENGYUN 1C DEB", "OBJECT_ID": "1999-025BKN", "EPOCH": "2025-11-30T08:14:41.612352", "MEAN_MOTION": 14.6127625, "ECCENTRICITY": 0.00154996, "INCLINATION": 99.2408, "RA_OF_ASC_NODE": 116.6005, "ARG_OF_PERICENTER": 303.0364, "MEAN_ANOMALY": 86.4571, "EPHEMERIS_TYPE": 0, "CLASSIFICATION_TYPE": "U", "NORAD_CAT_ID": 31208, "ELEMENT_SET_NO": 999, "REV_AT_EPOCH": 70298, "BSTAR": 0.0032156877, "MEAN_MOTION_DOT": 0.00015873, "MEAN_MOTION_DDOT": 0}, "tle": {"line1": "1 31208U 99025BKN 25334.34353718  .00015873  00000+0  32157-2 0  9993", "line2": "2 31208  99.2408 116.6005 0015499 303.0364  86.4571 14.61276250702985"}}, "geometry": {"type": "Point", "coordinates": [-68.79555627492529, -41.69884826377386]}}, {"type": "Feature", "properties": {"norad_id": 31209, "name": "FENGYUN 1C DEB", "group": "fengyun-1c-debris", "lat": -15.124429726030634, "lon": 74.0668365549952, "alt_km": 739.6191994952042, "timestamp": "2025-12-02T23:34:15.797364+00:00", "meta": {"OBJECT_NAME": "FENGYUN 1C DEB", "OBJECT_ID": "1999-025BKP", "EPOCH": "2025-11-30T00:05:28.523040", "MEAN_MOTION": 14.43135602, "ECCENTRICITY": 0.00214689, "INCLINATION": 98.8844, "RA_OF_ASC_NODE": 68.5398, "ARG_OF_PERICENTER": 25.3584, "MEAN_ANOMALY": 334.8653, "EPHEMERIS_TYPE": 0, "CLASSIFICATION_TYPE": "U", "NORAD_CAT_ID": 31209, "ELEMENT_SET_NO": 999, "REV_AT_EPOCH": 64624, "BSTAR": 0.0029439895, "MEAN_MOTION_DOT": 9.879e-05, "MEAN_MOTION_DDOT": 0}, "tle": {"line1": "1 31209U 99025BKP 25334.00380235  .00009879  00000+0  29440-2 0  9991", "line2": "2 31209  98.8844  68.5398 0021468  25.3584 334.8653 14.43135602646248"}}, "geometry": {"type": "Point", "coordinates": [74.0668365549952, -15.124429726030634]}}, {"type": "Feature", "properties": {"norad_id": 31210, "name": "FENGYUN 1C DEB", "group": "fengyun-1c-debris", "lat": -48.033147996962796, "lon": 148.45921653560063, "alt_km": 851.0238989285926, "timestamp": "2025-12-02T23:34:15.797374+00:00", "meta": {"OBJECT_NAME": "FENGYUN 1C DEB", "OBJECT_ID": "1999-025BKQ", "EPOCH": "2025-12-02T11:19:00.611040", "MEAN_MOTION": 14.11975225, "ECCENTRICITY": 0.0016666, "INCLINATION": 98.7187, "RA_OF_ASC_NODE": 337.787, "ARG_OF_PERICENTER": 184.133, "MEAN_ANOMALY": 330.4832, "EPHEMERIS_TYPE": 0, "CLASSIFICATION_TYPE": "U", "NORAD_CAT_ID": 31210, "ELEMENT_SET_NO": 999, "REV_AT_EPOCH": 95822, "BSTAR": 0.00046216, "MEAN_MOTION_DOT": 8.04e-06, "MEAN_MOTION_DDOT": 0}, "tle": {"line1": "1 31210U 99025BKQ 25336.47153485  .00000804  00000+0  46216-3 0  9991", "line2": "2 31210  98.7187 337.7870 0016666 184.1330 330.4832 14.11975225958225"}}, "geometry": {"type": "Point", "coordinates": [148.45921653560063, -48.033147996962796]}}]}